NORAD_CAT_ID,OBJECT_NAME,OBJECT_TYPE,EPOCH,MEAN_MOTION,ECCENTRICITY,INCLINATION,RA_OF_ASC_NODE,ARG_OF_PERICENTER,MEAN_ANOMALY,BSTAR,MEAN_MOTION_DOT,MEAN_MOTION_DDOT,TLE_LINE0,TLE_LINE1,TLE_LINE2,SEMIMAJOR_AXIS,PERIOD,APOGEE,PERIGEE,DECAYED
51777.0,STARLINK-3625,PAYLOAD,2023-04-17 04:56:19,15.08841354,0.0001099,53.2187,46.3166,101.8132,258.2984,5.1418e-05,5.31e-06,0.0,0 STARLINK-3625,1 51777U 22017K   23107.20577637  .00000531  00000-0  51418-4 0  9991,2 51777  53.2187  46.3166 0001099 101.8132 258.2984 15.08841354 64429,6917.876,95.437,540.502,538.981,0.0
51777.0,STARLINK-3625,PAYLOAD,2023-04-17 06:31:42,15.08848088,0.0001155,53.2188,46.0219,97.8349,262.2774,-2.6101e-05,-7.03e-06,0.0,0 STARLINK-3625,1 51777U 22017K   23107.27201401 -.00000703  00000-0 -26101-4 0  9995,2 51777  53.2188  46.0219 0001155  97.8349 262.2774 15.08848088 62963,6917.856,95.437,540.52,538.922,0.0
51777.0,STARLINK-3625,PAYLOAD,2023-04-18 04:47:06,15.08841649,0.0001185,53.2195,41.8575,112.7337,247.3781,9.2825e-05,1.19e-05,0.0,0 STARLINK-3625,1 51777U 22017K   23108.19937775  .00001190  00000-0  92825-4 0  9992,2 51777  53.2195  41.8575 0001185 112.7337 247.3781 15.08841649 63101,6917.875,95.437,540.56,538.921,0.0
51777.0,STARLINK-3625,PAYLOAD,2023-04-19 04:37:53,15.08842833,0.0001195,53.2182,37.397,120.6658,239.4452,7.801e-05,9.54e-06,0.0,0 STARLINK-3625,1 51777U 22017K   23109.19297958  .00000954  00000-0  78010-4 0  9992,2 51777  53.2182  37.3970 0001195 120.6658 239.4452 15.08842833 63250,6917.872,95.437,540.563,538.91,0.0
51777.0,STARLINK-3625,PAYLOAD,2023-04-20 04:28:40,15.08849737,0.0001098,53.218,32.9371,117.3025,242.8079,2.194e-05,6.1e-07,0.0,0 STARLINK-3625,1 51777U 22017K   23110.18657707  .00000061  00000-0  21940-4 0  9994,2 51777  53.2180  32.9371 0001098 117.3025 242.8079 15.08849737 63407,6917.851,95.437,540.475,538.956,0.0
51777.0,STARLINK-3625,PAYLOAD,2023-04-21 04:19:27,15.0884134,0.000123,53.2189,28.4768,108.4084,251.7042,3.4529e-05,2.62e-06,0.0,0 STARLINK-3625,1 51777U 22017K   23111.18018494  .00000262  00000-0  34529-4 0  9999,2 51777  53.2189  28.4768 0001230 108.4084 251.7042 15.08841340 63557,6917.876,95.437,540.592,538.89,0.0
51777.0,STARLINK-3625,PAYLOAD,2023-04-21 18:37:56,15.08840473,0.0001263,53.2182,25.8001,121.5756,238.536,9.0284e-06,-1.44e-06,0.0,0 STARLINK-3625,1 51777U 22017K   23111.77634697 -.00000144  00000-0  90284-5 0  9994,2 51777  53.2182  25.8001 0001263 121.5756 238.5360 15.08840473 63641,6917.879,95.438,540.618,538.87,0.0
51777.0,STARLINK-3625,PAYLOAD,2023-04-23 00:50:15,15.08841997,0.0001129,53.2191,20.1519,104.0015,256.1103,4.8267e-05,4.8e-06,0.0,0 STARLINK-3625,1 51777U 22017K   23113.03490354  .00000480  00000-0  48267-4 0  9990,2 51777  53.2191  20.1519 0001129 104.0015 256.1103 15.08841997 65306,6917.874,95.437,540.52,538.958,0.0
51777.0,STARLINK-3625,PAYLOAD,2023-04-23 18:19:30,15.08839366,7.88e-05,53.2183,16.8836,91.4074,268.7009,5.1215e-05,5.28e-06,0.0,0 STARLINK-3625,1 51777U 22017K   23113.76354678  .00000528  00000-0  51215-4 0  9998,2 51777  53.2183  16.8836 0000788  91.4074 268.7009 15.08839366 63944,6917.882,95.438,540.292,539.202,0.0
51777.0,STARLINK-3625,PAYLOAD,2023-04-24 03:51:48,15.08857061,0.0001733,53.2206,15.098,106.5277,253.5906,0.0001838,2.64e-05,0.0,0 STARLINK-3625,1 51777U 22017K   23114.16097421  .00002640  00000-0  18380-3 0  9995,2 51777  53.2206  15.0980 0001733 106.5277 253.5906 15.08857061 65475,6917.828,95.436,540.892,538.494,0.0
51777.0,STARLINK-3625,PAYLOAD,2023-04-25 00:31:47,15.08877043,0.0001054,53.2174,11.2305,85.123,274.9882,0.00035372,5.352e-05,0.0,0 STARLINK-3625,1 51777U 22017K   23115.02207265  .00005352  00000-0  35372-3 0  9993,2 51777  53.2174  11.2305 0001054  85.1230 274.9882 15.08877043 64139,6917.767,95.435,540.361,538.903,0.0
51777.0,STARLINK-3625,PAYLOAD,2023-04-26 00:22:36,15.08801089,0.0001089,53.2173,6.7695,99.64,260.4715,-0.00092405,-0.00014948,0.0,0 STARLINK-3625,1 51777U 22017K   23116.01570310 -.00014948  00000-0 -92405-3 0  9990,2 51777  53.2173   6.7695 0001089  99.6400 260.4715 15.08801089 64284,6917.999,95.44,540.618,539.111,0.0
51777.0,STARLINK-3625,PAYLOAD,2023-04-26 22:38:02,15.0881894,0.0001553,53.2174,2.6122,84.7469,275.3701,0.0003787,5.741e-05,0.0,0 STARLINK-3625,1 51777U 22017K   23116.94308159  .00005741  00000-0  37870-3 0  9996,2 51777  53.2174   2.6122 0001553  84.7469 275.3701 15.08818940 64421,6917.945,95.439,540.884,538.735,0.0
51777.0,STARLINK-3625,PAYLOAD,2023-04-27 20:53:27,15.0880377,0.000176,53.2177,358.4491,104.4024,255.7164,-0.00025456,-4.333e-05,0.0,0 STARLINK-3625,1 51777U 22017K   23117.87045506 -.00004333  00000-0 -25456-3 0  9998,2 51777  53.2177 358.4491 0001760 104.4024 255.7164 15.08803770 66031,6917.991,95.44,541.074,538.639,0.0
51777.0,STARLINK-3625,PAYLOAD,2023-04-28 01:39:34,15.08868822,0.0001353,53.2176,357.5562,88.9082,271.2065,0.0011242,0.00017663,0.0,0 STARLINK-3625,1 51777U 22017K   23118.06915108  .00017663  00000-0  11242-2 0  9999,2 51777  53.2176 357.5562 0001353  88.9082 271.2065 15.08868822 66062,6917.792,95.436,540.593,538.721,0.0
51777.0,STARLINK-3625,PAYLOAD,2023-04-28 15:58:03,15.08843904,0.0001155,53.2199,354.8838,46.4329,313.6759,0.0001042,1.371e-05,0.0,0 STARLINK-3625,1 51777U 22017K   23118.66532031  .00001371  00000-0  10420-3 0  9992,2 51777  53.2199 354.8838 0001155  46.4329 313.6759 15.08843904 66151,6917.868,95.437,540.532,538.934,0.0
51777.0,STARLINK-3625,PAYLOAD,2023-04-29 01:30:21,15.08852047,0.0001023,53.2177,353.0937,80.0293,280.0815,0.0002237,3.275e-05,0.0,0 STARLINK-3625,1 51777U 22017K   23119.06275425  .00003275  00000-0  22370-3 0  9990,2 51777  53.2177 353.0937 0001023  80.0293 280.0815 15.08852047 64747,6917.844,95.437,540.416,539.001,0.0
51777.0,STARLINK-3625,PAYLOAD,2023-04-29 18:59:36,15.08847178,0.000108,53.2172,349.8222,79.9536,280.1578,0.00030463,4.565e-05,0.0,0 STARLINK-3625,1 51777U 22017K   23119.79139455  .00004565  00000-0  30463-3 0  9997,2 51777  53.2172 349.8222 0001080  79.9536 280.1578 15.08847178 66324,6917.858,95.437,540.471,538.976,0.0
51777.0,STARLINK-3625,PAYLOAD,2023-04-30 14:04:14,15.08844556,0.0001288,53.2171,346.2574,59.4194,300.6925,0.00017891,2.561e-05,0.0,0 STARLINK-3625,1 51777U 22017K   23120.58627504  .00002561  00000-0  17891-3 0  9997,2 51777  53.2171 346.2574 0001288  59.4194 300.6925 15.08844556 64977,6917.866,95.437,540.622,538.84,0.0
51777.0,STARLINK-3625,PAYLOAD,2023-04-30 15:39:37,15.08841926,0.0001218,53.2171,345.9579,69.8849,290.2274,0.000116,1.559e-05,0.0,0 STARLINK-3625,1 51777U 22017K   23120.65251570  .00001559  00000-0  11600-3 0  9999,2 51777  53.2171 345.9579 0001218  69.8849 290.2274 15.08841926 66457,6917.875,95.437,540.582,538.897,0.0
51777.0,STARLINK-3625,PAYLOAD,2023-04-30 23:36:32,15.08842403,0.000114,53.2173,344.4712,74.9861,285.1257,0.00011176,1.491e-05,0.0,0 STARLINK-3625,1 51777U 22017K   23120.98371497  .00001491  00000-0  11176-3 0  9999,2 51777  53.2173 344.4712 0001140  74.9861 285.1257 15.08842403 65035,6917.873,95.437,540.527,538.949,0.0
51777.0,STARLINK-3625,PAYLOAD,2023-05-01 20:16:33,15.08838752,0.0001214,53.2175,340.6059,82.1741,277.9389,4.5107e-06,-2.16e-06,0.0,0 STARLINK-3625,1 51777U 22017K   23121.84483687 -.00000216  00000-0  45107-5 0  9998,2 51777  53.2175 340.6059 0001214  82.1741 277.9389 15.08838752 65160,6917.884,95.438,540.589,538.909,0.0
51777.0,STARLINK-3625,PAYLOAD,2023-05-01 23:27:20,15.08842405,0.000122,53.2177,340.0109,80.9599,279.1531,3.5293e-05,2.74e-06,0.0,0 STARLINK-3625,1 51777U 22017K   23121.97731489  .00000274  00000-0  35293-4 0  9995,2 51777  53.2177 340.0109 0001220  80.9599 279.1531 15.08842405 66654,6917.873,95.437,540.582,538.894,0.0
51777.0,STARLINK-3625,PAYLOAD,2023-05-02 05:48:52,15.0884261,0.0001218,53.2184,338.8209,85.6757,274.4374,0.00011201,1.495e-05,0.0,0 STARLINK-3625,1 51777U 22017K   23122.24227641  .00001495  00000-0  11201-3 0  9994,2 51777  53.2184 338.8209 0001218  85.6757 274.4374 15.08842610 65226,6917.872,95.437,540.58,538.895,0.0
51777.0,STARLINK-3625,PAYLOAD,2023-05-02 20:07:20,15.08844144,0.0001,53.2187,336.1454,75.1993,284.911,0.00013669,1.889e-05,0.0,0 STARLINK-3625,1 51777U 22017K   23122.83843475  .00001889  00000-0  13669-3 0  9995,2 51777  53.2187 336.1454 0001000  75.1993 284.9110 15.08844144 65315,6917.868,95.437,540.425,539.041,0.0
51777.0,STARLINK-3625,PAYLOAD,2023-05-03 00:53:29,15.08850509,0.0001312,53.2177,335.2536,88.2242,271.8901,0.00024625,3.634e-05,0.0,0 STARLINK-3625,1 51777U 22017K   23123.03715035  .00003634  00000-0  24625-3 0  9992,2 51777  53.2177 335.2536 0001312  88.2242 271.8901 15.08850509 66814,6917.848,95.437,540.621,538.806,0.0
51777.0,STARLINK-3625,PAYLOAD,2023-05-03 07:15:03,15.08832593,0.0001093,53.2178,334.0648,77.7864,282.3251,-5.1055e-05,-1.1e-05,0.0,0 STARLINK-3625,1 51777U 22017K   23123.30211921 -.00001100  00000-0 -51055-4 0  9993,2 51777  53.2178 334.0648 0001093  77.7864 282.3251 15.08832593 66857,6917.903,95.438,540.524,539.012,0.0
51777.0,STARLINK-3625,PAYLOAD,2023-05-03 21:33:31,15.08835446,0.0001192,53.2176,331.3884,77.9733,282.1393,1.5868e-05,-3.5e-07,0.0,0 STARLINK-3625,1 51777U 22017K   23123.89828106 -.00000035  00000-0  15868-4 0  9993,2 51777  53.2176 331.3884 0001192  77.9733 282.1393 15.08835446 65476,6917.894,95.438,540.584,538.935,0.0
51777.0,STARLINK-3625,PAYLOAD,2023-05-04 02:19:40,15.08843581,0.0001178,53.217,330.4947,79.0261,281.0863,0.00011904,1.607e-05,0.0,0 STARLINK-3625,1 51777U 22017K   23124.09699682  .00001607  00000-0  11904-3 0  9992,2 51777  53.2170 330.4947 0001178  79.0261 281.0863 15.08843581 66978,6917.869,95.437,540.549,538.92,0.0
51777.0,STARLINK-3625,PAYLOAD,2023-05-04 13:27:22,15.08844393,0.000117,53.216,328.4129,75.6392,284.473,0.00022151,3.24e-05,0.0,0 STARLINK-3625,1 51777U 22017K   23124.56067753  .00003240  00000-0  22151-3 0  9993,2 51777  53.2160 328.4129 0001170  75.6392 284.4730 15.08844393 65572,6917.867,95.437,540.541,538.923,0.0
